45P/Honda-Mrkos-Pajdusakova,e,4.3246,87.6642,327.9735,3.056908,0.1844084,0.81747986,257.5197,02/22.0/2026,2000,g 13.5,8.0
# From MPEC 2025-W75
46P/Wirtanen,e,11.7487,82.1644,356.3591,3.092767,0.1812104,0.65859561,116.6854,02/22.0/2026,2000,g 14.0,6.0
# From MPEC 2026-A90
47P/Ashbrook-Jackson,e,13.0398,356.8814,357.9174,4.115985,0.1180303,0.31791296,13.8095,02/22.0/2026,2000,g  1.0,11.2
# From MPEC 2026-A90
48P/Johnson,e,12.2018,110.0632,216.8150,3.499935,0.1505269,0.42649387,53.6322,02/22.0/2026,2000,g 10.0,6.0
# From MPEC 2026-A24
49P/Arend-Rigaux,e,19.0597,118.7902,332.9309,3.569097,0.1461728,0.59891872,46.3962,02/22.0/2026,2000,g 11.3,4.4
# From MPEC 2025-W75
50P/Arend,e,19.1005,355.1444,49.3016,4.085643,0.1193475,0.52953237,77.6356,02/22.0/2026,2000,g  9.5,6.0
# From MPEC 2025-W75
51P/Harrington,e,5.4263,83.6580,269.2132,3.705385,0.1381828,0.54266215,171.4575,02/22.0/2026,2000,g 10.0,8.0
# From NK 3014
51P-A/Harrington,e,5.4261,269.2259,83.6252,3.706613,0.1381141,0.54285795,171.0156,02/22.0/2026,2000,g 10.0,8.0
# From MPEC 2025-W75
52P/Harrington-Abell,e,10.2411,336.7407,139.6472,3.861684,0.1298790,0.54121659,207.6935,02/22.0/2026,2000,g 13.5,6.0
# From MPEC 2025-W75
53P/VanBiesbroeck,e,6.6053,148.8485,134.3282,5.440583,0.0776669,0.55019418,279.4437,02/22.0/2026,2000,g  7.7,4.8
# From MPEC 2025-W75
54P/deVico-Swift-NEAT,e,6.0770,358.3628,2.4409,3.795259,0.1333036,0.42904028,71.3191,02/22.0/2026,2000,g 10.0,6.0
# From MPEC 2025-W75
55P/Tempel-Tuttle,e,162.4917,235.4087,172.5357,10.33334,0.0296717,0.90534696,303.1048,02/22.0/2026,2000,g 10.0,10.0
# From MPEC 2025-W75
56P/Slaughter-Burnham,e,8.1552,345.8689,44.2384,5.062725,0.0865222,0.50814699,302.4055,02/22.0/2026,2000,g  8.5,6.0
# From MPEC 2025-W75
57P/duToit-Neujmin-Delporte,e,2.8557,188.6905,115.1146,3.439541,0.1545088,0.50207029,245.5270,02/22.0/2026,2000,g 12.5,6.0
# From MPEC 2025-W75
58P/Jackson-Neujmin,e,13.0832,159.0257,200.5775,4.091952,0.1190716,0.66135684,249.8323,02/22.0/2026,2000,g 15.5,6.0
# From MPEC 2025-W75
59P/Kearns-Kwee,e,9.3575,312.7263,127.7025,4.477916,0.1040136,0.47700494,281.7155,02/22.0/2026,2000,g  7.0,6.0
# From MPEC 2025-W75
60P/Tsuchinshan,e,3.5798,267.3954,216.9167,3.529317,0.1486511,0.53368077,32.1669,02/22.0/2026,2000,g 11.5,6.0
# From MPEC 2025-W75
61P/Shajn-Schaldach,e,5.9955,162.9544,221.7185,3.691375,0.1389702,0.42273901,169.2702,02/22.0/2026,2000,g  6.0,10.0
# From MPEC 2025-W75
62P/Tsuchinshan,e,4.7360,68.6603,47.3518,3.371613,0.1592016,0.62473406,125.7193,02/22.0/2026,2000,g  8.0,10.0
# From MPEC 2026-A90
63P/Wild,e,19.6172,357.7459,168.7354,5.657526,0.0732427,0.65092793,350.1752,02/22.0/2026,2000,g 10.5,6.0
# From MPEC 2025-W75
64P/Swift-Gehrels,e,8.9549,299.7613,97.3410,4.452341,0.1049111,0.68820732,279.3973,02/22.0/2026,2000,g  9.5,12.0
# From MPEC 2025-X35
65P/Gunn,e,9.1749,61.9696,213.6389,3.891420,0.1283932,0.24807367,32.1896,02/22.0/2026,2000,g  5.0,6.0
# From MPEC 2025-W75
66P/duToit,e,18.6468,21.8602,257.3351,6.070538,0.0658967,0.78492644,187.4465,02/22.0/2026,2000,g 12.0,3.6
# From MPEC 2025-W75
67P/Churyumov-Gerasimenko,e,3.8669,36.2994,22.2313,3.458784,0.1532212,0.64965933,240.8859,02/22.0/2026,2000,g 11.0,4.0
# From MPEC 2025-W75
68P/Klemola,e,11.0966,175.0977,153.1881,4.964384,0.0891058,0.63560512,205.0706,02/22.0/2026,2000,g 10.0,4.0
# From MPEC 2025-W75
69P/Taylor,e,22.0611,104.8066,343.5421,3.879020,0.1290093,0.41466549,326.0126,02/22.0/2026,2000,g  9.5,12.0
# From MPEC 2025-W75
70P/Kojima,e,6.6037,119.2362,1.8154,3.674843,0.1399091,0.45495221,219.6808,02/22.0/2026,2000,g 11.0,6.0
# From MPEC 2025-W75
71P/Clark,e,9.1900,58.8819,210.8409,3.186198,0.1732986,0.48190965,196.1780,02/22.0/2026,2000,g  9.8,6.0
# From MPEC 2025-W75
72P/Denning-Fujikawa,e,10.9394,26.7343,346.7346,4.307635,0.1102416,0.81813259,108.3319,02/22.0/2026,2000,g 17.5,10.0
# From MPEC 2025-W75
73P/Schwassmann-Wachmann,e,6.2894,53.1831,213.8777,3.055249,0.1845585,0.70395513,236.8342,02/22.0/2026,2000,g 11.5,6.0
# From MPC106348
73P-BT/Schwassmann-Wachmann,e,10.6077,189.7311,78.4475,3.080847,0.1822632,0.69252989,232.6210,02/22.0/2026,2000,g 11.5,6.0
# From MPEC 2026-A24
74P/Smirnova-Chernykh,e,5.9135,50.4743,57.9520,5.156521,0.0841722,0.06190261,359.0756,02/22.0/2026,2000,g  5.0,6.0
# From MPEC 2025-WD0
76P/West-Kohoutek-Ikemura,e,30.4982,84.1089,0.0242,3.467155,0.1526667,0.53945232,352.2685,02/22.0/2026,2000,g  8.0,12.0
# From MPEC 2025-W75
77P/Longmore,e,24.3318,14.7476,196.5885,3.619377,0.1431375,0.35208384,151.1559,02/22.0/2026,2000,g  7.0,8.0
# From MPEC 2026-A24
78P/Gehrels,e,6.2574,210.4950,192.7892,3.732335,0.1366889,0.46293102,343.1755,02/22.0/2026,2000,g  5.5,8.0
# From MPEC 2025-W75
79P/duToit-Hartley,e,3.1489,280.4835,281.7654,2.941976,0.1953194,0.61959303,171.0112,02/22.0/2026,2000,g 16.0,4.0
# From MPEC 2025-W75
80P/Peters-Hartley,e,29.9291,259.7692,339.2472,4.020807,0.1222459,0.59771640,143.2892,02/22.0/2026,2000,g  9.0,8.0
# From MPEC 2025-W75
81P/Wild,e,3.2388,136.1065,41.5451,3.450917,0.1537454,0.53793766,178.9282,02/22.0/2026,2000,g  7.0,6.0
# From MPEC 2025-W75
82P/Gehrels,e,1.1293,239.2901,226.3333,4.133947,0.1172618,0.12332282,328.7644,02/22.0/2026,2000,g  5.0,8.0
# From MPEC 2025-W75
84P/Giclas,e,7.5529,108.0797,281.7426,3.549984,0.1473549,0.51556893,307.5865,02/22.0/2026,2000,g  9.5,8.0
# From MPEC 2025-W75
86P/Wild,e,15.4612,72.0757,180.9585,3.654862,0.1410580,0.35984010,209.7372,02/22.0/2026,2000,g 11.0,6.0
# From MPEC 2025-WD0
87P/Bus,e,3.8610,175.6220,63.7546,4.463437,0.1045201,0.19618629,231.9241,02/22.0/2026,2000,g  7.2,10.0
# From MPEC 2025-W75
88P/Howell,e,4.3819,56.6693,235.8667,3.109099,0.1797845,0.56328154,355.5464,02/22.0/2026,2000,g 11.0,6.0
# From MPEC 2025-W75
89P/Russell,e,12.0668,41.3391,250.4776,3.751849,0.1356238,0.40707147,94.6065,02/22.0/2026,2000,g 11.5,6.0
# From MPEC 2025-W75
90P/Gehrels,e,9.6333,13.1466,29.2354,6.055694,0.0661391,0.51019201,209.3680,02/22.0/2026,2000,g  8.5,6.0
# From MPEC 2025-WD0
91P/Russell,e,15.9464,241.9336,356.8544,4.162838,0.1160432,0.25133440,246.6621,02/22.0/2026,2000,g  7.5,6.0
# From MPEC 2025-W75
92P/Sanguin,e,19.4774,181.3337,163.7802,5.345944,0.0797384,0.65991477,319.4549,02/22.0/2026,2000,g 12.0,6.0
# From MPEC 2026-A24
93P/Lovas,e,12.2106,339.5496,75.0430,4.372241,0.1078072,0.61383668,352.4591,02/22.0/2026,2000,g  9.5,6.0
# From MPEC 2025-W75
94P/Russell,e,6.1871,70.8372,92.3855,3.509587,0.1499064,0.36623399,151.0329,02/22.0/2026,2000,g  9.0,6.0
# From MPEC 2025-W75
96P/Machholz,e,57.5789,93.9601,14.7415,3.030989,0.1867788,0.96173153,208.7085,02/22.0/2026,2000,g 13.0,4.8
# From MPC106348
96P-B/Machholz,e,57.5097,14.4977,94.0659,3.029972,0.1868728,0.96175069,208.8722,02/22.0/2026,2000,g 13.0,4.8
# From MPEC 2025-W75
97P/Metcalf-Brewington,e,17.9316,184.0632,230.2388,4.771439,0.0945649,0.45960183,138.7572,02/22.0/2026,2000,g  5.5,6.0
# From MPEC 2025-W75
98P/Takamizawa,e,10.9236,114.4721,158.6176,3.733586,0.1366202,0.58624553,251.4712,02/22.0/2026,2000,g  9.0,8.0
# From MPEC 2025-W75
99P/Kowal,e,4.3395,28.0467,174.5062,6.092814,0.0655356,0.22901023,92.7309,02/22.0/2026,2000,g  4.5,6.0
# From MPEC 2025-W75
100P/Hartley,e,25.5685,37.6860,181.8913,3.430207,0.1551399,0.41141337,200.4796,02/22.0/2026,2000,g  9.0,8.0
# From MPEC 2025-W75
101P/Chernykh,e,5.0485,116.1123,278.0112,5.819375,0.0702085,0.59513175,156.7576,02/22.0/2026,2000,g 10.0,4.8
# From MPEC 2025-W75
102P/Shoemaker,e,25.8447,339.3451,20.6997,3.821074,0.1319550,0.45573903,245.2266,02/22.0/2026,2000,g  6.5,8.0
# From MPEC 2025-W75
103P/Hartley,e,13.6034,219.7623,181.3348,3.476242,0.1520684,0.69327026,131.3455,02/22.0/2026,2000,g  8.5,8.0
# From MPEC 2025-W75
104P/Kowal,e,5.6998,207.1608,227.3350,3.208474,0.1714969,0.66582150,257.4538,02/22.0/2026,2000,g 16.0,4.0
# From MPEC 2025-W75
105P/SingerBrewster,e,9.1683,192.3862,46.3096,3.472523,0.1523128,0.40918076,60.2086,02/22.0/2026,2000,g 11.5,6.0
# From MPEC 2025-W75
106P/Schuster,e,19.5267,48.8651,353.8010,3.768866,0.1347063,0.59325758,222.0045,02/22.0/2026,2000,g 14.0,4.8
# From MPEC 2025-W75
108P/Ciffreo,e,11.4304,50.2729,354.5650,3.744442,0.1360265,0.55540437,221.1431,02/22.0/2026,2000,g  8.0,12.0
# From MPEC 2025-W75
109P/Swift-Tuttle,e,112.9125,139.8492,153.2450,26.18892,0.0073541,0.96318345,89.1072,02/22.0/2026,2000,g  4.5,6.0
# From MPEC 2025-W75
110P/Hartley,e,11.7118,287.4818,167.5956,3.603260,0.1440989,0.31924645,228.5103,02/22.0/2026,2000,g  1.0,12.0
# From MPEC 2025-WD0
111P/Helin-Roman-Crockett,e,4.2261,89.7328,1.6056,4.153106,0.1164514,0.10712680,198.8056,02/22.0/2026,2000,g  5.0,8.0
# From MPEC 2025-WD0
112P/Urata-Niijima,e,24.2034,31.7974,21.5782,3.521573,0.1491417,0.59075545,328.4043,02/22.0/2026,2000,g 14.0,6.0
# From MPEC 2025-W75
113P/Spitaler,e,5.2880,306.6104,115.7678,3.696833,0.1386626,0.41940812,188.7581,02/22.0/2026,2000,g 13.5,4.0
# From MPEC 2025-W75
114P/Wiseman-Skiff,e,18.3034,271.0232,172.8408,3.538723,0.1480588,0.55611363,329.6498,02/22.0/2026,2000,g 11.5,6.0
# From MPEC 2025-W75
115P/Maury,e,11.6994,175.8920,120.9659,4.269335,0.1117284,0.51890332,227.5506,02/22.0/2026,2000,g 10.5,6.0
# From MPEC 2025-W75
116P/Wild,e,3.6052,20.9584,173.1493,3.485061,0.1514916,0.37106019,199.3484,02/22.0/2026,2000,g  2.5,10.0
# From MPEC 2026-A24
117P/Helin-Roman-Alu,e,8.6518,58.7526,225.0046,4.127372,0.1175421,0.24977569,155.5977,02/22.0/2026,2000,g  2.5,8.0
# From MPEC 2025-W75
118P/Shoemaker-Levy,e,10.0933,142.0433,314.9828,3.349118,0.1608083,0.45377170,190.5606,02/22.0/2026,2000,g 12.0,4.0
# From MPEC 2025-W75
119P/Parker-Hartley,e,7.3929,104.5408,322.3047,3.810553,0.1325019,0.38786088,170.8827,02/22.0/2026,2000,g  3.5,8.0
# From MPEC 2025-W75
120P/Mueller,e,8.4785,358.6402,36.8492,3.970869,0.1245592,0.37380888,218.2164,02/22.0/2026,2000,g 12.0,4.0
# From MPEC 2025-W75
121P/Shoemaker-Holt,e,20.1620,94.1053,12.0916,4.591210,0.1001875,0.18665527,96.8368,02/22.0/2026,2000,g  6.5,8.0
# From MPEC 2025-W75
122P/deVico,e,85.9603,79.7286,13.0121,17.63606,0.0133077,0.96266103,147.6317,02/22.0/2026,2000,g  7.5,5.2
# From MPEC 2026-A90
